[{"OBJECT_NAME":"STARLINK-4464","OBJECT_ID":"2022-105X","EPOCH":"2026-03-09T14:51:26.225856","MEAN_MOTION":15.01264858,"ECCENTRICITY":0.0001935,"INCLINATION":97.6047,"RA_OF_ASC_NODE":310.1336,"ARG_OF_PERICENTER":87.5049,"MEAN_ANOMALY":272.6397,"EPHEMERIS_TYPE":0,"CLASSIFICATION_TYPE":"U","NORAD_CAT_ID":53669,"ELEMENT_SET_NO":999,"REV_AT_EPOCH":19322,"BSTAR":8.3915e-5,"MEAN_MOTION_DOT":1.02e-5,"MEAN_MOTION_DDOT":0},{"OBJECT_NAME":"CZ-6A DEB","OBJECT_ID":"2022-151ADY","EPOCH":"2026-03-09T03:31:51.275136","MEAN_MOTION":14.90358805,"ECCENTRICITY":0.00492463,"INCLINATION":98.6182,"RA_OF_ASC_NODE":136.027,"ARG_OF_PERICENTER":205.5066,"MEAN_ANOMALY":154.3719,"EPHEMERIS_TYPE":0,"CLASSIFICATION_TYPE":"U","NORAD_CAT_ID":56600,"ELEMENT_SET_NO":999,"REV_AT_EPOCH":16160,"BSTAR":0.0054644315,"MEAN_MOTION_DOT":0.00054726,"MEAN_MOTION_DDOT":0}]
